{"type": "FeatureCollection", "features": [ {"type": "Feature", "properties": {"norad_id": 33492, "name": "GOSAT (IBUKI)", "group": "resource", "lat": 59.67376208547143, "lon": 89.22756764505418, "alt_km": 662.6152409760516, "timestamp": "2025-12-20T18:51:31.374711+00:00", "meta": {"OBJECT_NAME": "GOSAT (IBUKI)", "OBJECT_ID": "2009-002A", "EPOCH": "2025-12-20T13:40:26.913216", "MEAN_MOTION": 14.67539172, "ECCENTRICITY": 9.948e-05, "INCLINATION": 98.0771, "RA_OF_ASC_NODE": 103.0642, "ARG_OF_PERICENTER": 101.5072, "MEAN_ANOMALY": 258.6245, "EPHEMERIS_TYPE": 0, "CLASSIFICATION_TYPE": "U", "NORAD_CAT_ID": 33492, "ELEMENT_SET_NO": 999, "REV_AT_EPOCH": 90526, "BSTAR": 0.00010874926, "MEAN_MOTION_DOT": 5.69e-06, "MEAN_MOTION_DDOT": 0}, "tle": {"line1": "1 33492U 09002A   25354.56975594  .00000569  00000+0  10875-3 0  9994", "line2": "2 33492  98.0771 103.0642 0000994 101.5072 258.6245 14.67539172905268"}}, "geometry": {"type": "Point", "coordinates": [89.22756764505418, 59.67376208547143]}}, {"type": "Feature", "properties": {"norad_id": 35681, "name": "DEIMOS-1", "group": "resource", "lat": -7.286506222680168, "lon": 156.007181373431, "alt_km": 648.6645668211941, "timestamp": "2025-12-20T18:51:31.374722+00:00", "meta": {"OBJECT_NAME": "DEIMOS-1", "OBJECT_ID": "2009-041A", "EPOCH": "2025-12-20T15:38:08.391264", "MEAN_MOTION": 14.74964093, "ECCENTRICITY": 0.00026015, "INCLINATION": 97.7143, "RA_OF_ASC_NODE": 154.8861, "ARG_OF_PERICENTER": 66.718, "MEAN_ANOMALY": 293.4303, "EPHEMERIS_TYPE": 0, "CLASSIFICATION_TYPE": "U", "NORAD_CAT_ID": 35681, "ELEMENT_SET_NO": 999, "REV_AT_EPOCH": 88056, "BSTAR": 8.6734553e-05, "MEAN_MOTION_DOT": 5.36e-06, "MEAN_MOTION_DDOT": 0}, "tle": {"line1": "1 35681U 09041A   25354.65148601  .00000536  00000+0  86735-4 0  9993", "line2": "2 35681  97.7143 154.8861 0002601  66.7180 293.4303 14.74964093880564"}}, "geometry": {"type": "Point", "coordinates": [156.007181373431, -7.286506222680168]}}, {"type": "Feature", "properties": {"norad_id": 35682, "name": "DUBAISAT-1", "group": "resource", "lat": -78.80585293381355, "lon": 170.48643379989613, "alt_km": 647.2392603630451, "timestamp": "2025-12-20T18:51:31.374733+00:00", "meta": {"OBJECT_NAME": "DUBAISAT-1", "OBJECT_ID": "2009-041B", "EPOCH": "2025-12-20T06:12:07.307424", "MEAN_MOTION": 14.74623137, "ECCENTRICITY": 0.0009265, "INCLINATION": 97.9798, "RA_OF_ASC_NODE": 124.8278, "ARG_OF_PERICENTER": 287.5013, "MEAN_ANOMALY": 72.5183, "EPHEMERIS_TYPE": 0, "CLASSIFICATION_TYPE": "U", "NORAD_CAT_ID": 35682, "ELEMENT_SET_NO": 999, "REV_AT_EPOCH": 87872, "BSTAR": 0.00014745, "MEAN_MOTION_DOT": 9.33e-06, "MEAN_MOTION_DDOT": 0}, "tle": {"line1": "1 35682U 09041B   25354.25841791  .00000933  00000+0  14745-3 0  9992", "line2": "2 35682  97.9798 124.8278 0009265 287.5013  72.5183 14.74623137878721"}}, "geometry": {"type": "Point", "coordinates": [170.48643379989613, -78.80585293381355]}}, {"type": "Feature", "properties": {"norad_id": 35931, "name": "OCEANSAT-2", "group": "resource", "lat": 81.071505619191, "lon": -72.39538581288889, "alt_km": 882.2851572751888, "timestamp": "2025-12-20T18:51:31.374743+00:00", "meta": {"OBJECT_NAME": "OCEANSAT-2", "OBJECT_ID": "2009-051A", "EPOCH": "2025-12-20T13:18:03.305088", "MEAN_MOTION": 13.99623078, "ECCENTRICITY": 0.00160154, "INCLINATION": 98.2217, "RA_OF_ASC_NODE": 354.3619, "ARG_OF_PERICENTER": 24.5792, "MEAN_ANOMALY": 335.6135, "EPHEMERIS_TYPE": 0, "CLASSIFICATION_TYPE": "U", "NORAD_CAT_ID": 35931, "ELEMENT_SET_NO": 999, "REV_AT_EPOCH": 85434, "BSTAR": -6.6325183e-05, "MEAN_MOTION_DOT": -1.34e-06, "MEAN_MOTION_DDOT": 0}, "tle": {"line1": "1 35931U 09051A   25354.55420492 -.00000134  00000+0 -66325-4 0  9991", "line2": "2 35931  98.2217 354.3619 0016015  24.5792 335.6135 13.99623078854343"}}, "geometry": {"type": "Point", "coordinates": [-72.39538581288889, 81.071505619191]}}, {"type": "Feature", "properties": {"norad_id": 35946, "name": "WORLDVIEW-2 (WV-2)", "group": "resource", "lat": -49.318500979420264, "lon": -124.23266550779506, "alt_km": 776.3818824830951, "timestamp": "2025-12-20T18:51:31.374753+00:00", "meta": {"OBJECT_NAME": "WORLDVIEW-2 (WV-2)", "OBJECT_ID": "2009-055A", "EPOCH": "2025-12-20T14:27:06.938496", "MEAN_MOTION": 14.37727135, "ECCENTRICITY": 0.00049166, "INCLINATION": 98.4779, "RA_OF_ASC_NODE": 65.5788, "ARG_OF_PERICENTER": 51.4458, "MEAN_ANOMALY": 308.7169, "EPHEMERIS_TYPE": 0, "CLASSIFICATION_TYPE": "U", "NORAD_CAT_ID": 35946, "ELEMENT_SET_NO": 999, "REV_AT_EPOCH": 84998, "BSTAR": 5.1019255e-05, "MEAN_MOTION_DOT": 1.1e-06, "MEAN_MOTION_DDOT": 0}, "tle": {"line1": "1 35946U 09055A   25354.60216364  .00000110  00000+0  51019-4 0  9994", "line2": "2 35946  98.4779  65.5788 0004916  51.4458 308.7169 14.37727135849981"}}, "geometry": {"type": "Point", "coordinates": [-124.23266550779506, -49.318500979420264]}}, {"type": "Feature", "properties": {"norad_id": 36036, "name": "SMOS", "group": "resource", "lat": -35.829716058418164, "lon": -174.1324896762734, "alt_km": 765.9816893480483, "timestamp": "2025-12-20T18:51:31.374763+00:00", "meta": {"OBJECT_NAME": "SMOS", "OBJECT_ID": "2009-059A", "EPOCH": "2025-12-20T12:21:18.783072", "MEAN_MOTION": 14.39747686, "ECCENTRICITY": 0.0001079, "INCLINATION": 98.438, "RA_OF_ASC_NODE": 179.4481, "ARG_OF_PERICENTER": 83.7466, "MEAN_ANOMALY": 276.3845, "EPHEMERIS_TYPE": 0, "CLASSIFICATION_TYPE": "U", "NORAD_CAT_ID": 36036, "ELEMENT_SET_NO": 999, "REV_AT_EPOCH": 84774, "BSTAR": 0.00010402639, "MEAN_MOTION_DOT": 2.82e-06, "MEAN_MOTION_DDOT": 0}, "tle": {"line1": "1 36036U 09059A   25354.51480073  .00000282  00000+0  10403-3 0  9990", "line2": "2 36036  98.4380 179.4481 0001079  83.7466 276.3845 14.39747686847747"}}, "geometry": {"type": "Point", "coordinates": [-174.1324896762734, -35.829716058418164]}}, {"type": "Feature", "properties": {"norad_id": 36110, "name": "YAOGAN-7", "group": "resource", "lat": 12.530965172839558, "lon": 58.31175297208044, "alt_km": 636.7077874662828, "timestamp": "2025-12-20T18:51:31.374774+00:00", "meta": {"OBJECT_NAME": "YAOGAN-7", "OBJECT_ID": "2009-069A", "EPOCH": "2025-12-20T14:51:06.634656", "MEAN_MOTION": 14.77742759, "ECCENTRICITY": 0.00233458, "INCLINATION": 98.0296, "RA_OF_ASC_NODE": 236.3475, "ARG_OF_PERICENTER": 254.4203, "MEAN_ANOMALY": 105.443, "EPHEMERIS_TYPE": 0, "CLASSIFICATION_TYPE": "U", "NORAD_CAT_ID": 36110, "ELEMENT_SET_NO": 999, "REV_AT_EPOCH": 86325, "BSTAR": 6.6216441e-05, "MEAN_MOTION_DOT": 4.23e-06, "MEAN_MOTION_DDOT": 0}, "tle": {"line1": "1 36110U 09069A   25354.61882679  .00000423  00000+0  66216-4 0  9994", "line2": "2 36110  98.0296 236.3475 0023345 254.4203 105.4430 14.77742759863258"}}, "geometry": {"type": "Point", "coordinates": [58.31175297208044, 12.530965172839558]}}, {"type": "Feature", "properties": {"norad_id": 36605, "name": "TANDEM-X", "group": "resource", "lat": 9.192737981123075, "lon": -178.7389241916313, "alt_km": 510.2814856166069, "timestamp": "2025-12-20T18:51:31.374784+00:00", "meta": {"OBJECT_NAME": "TANDEM-X", "OBJECT_ID": "2010-030A", "EPOCH": "2025-12-20T11:47:12.910560", "MEAN_MOTION": 15.19154059, "ECCENTRICITY": 0.00017998, "INCLINATION": 97.4444, "RA_OF_ASC_NODE": 359.7582, "ARG_OF_PERICENTER": 78.1402, "MEAN_ANOMALY": 282.0034, "EPHEMERIS_TYPE": 0, "CLASSIFICATION_TYPE": "U", "NORAD_CAT_ID": 36605, "ELEMENT_SET_NO": 999, "REV_AT_EPOCH": 85951, "BSTAR": 3.1882246e-05, "MEAN_MOTION_DOT": 6.03e-06, "MEAN_MOTION_DDOT": 0}, "tle": {"line1": "1 36605U 10030A   25354.49112165  .00000603  00000+0  31882-4 0  9996", "line2": "2 36605  97.4444 359.7582 0001799  78.1402 282.0034 15.19154059859518"}}, "geometry": {"type": "Point", "coordinates": [-178.7389241916313, 9.192737981123075]}}, {"type": "Feature", "properties": {"norad_id": 36795, "name": "CARTOSAT-2B", "group": "resource", "lat": 55.57769651628298, "lon": -124.92997720599682, "alt_km": 625.0806851171428, "timestamp": "2025-12-20T18:51:31.374794+00:00", "meta": {"OBJECT_NAME": "CARTOSAT-2B", "OBJECT_ID": "2010-035A", "EPOCH": "2025-12-20T15:03:17.857728", "MEAN_MOTION": 14.78734947, "ECCENTRICITY": 0.00128207, "INCLINATION": 97.7846, "RA_OF_ASC_NODE": 43.4016, "ARG_OF_PERICENTER": 53.2226, "MEAN_ANOMALY": 307.016, "EPHEMERIS_TYPE": 0, "CLASSIFICATION_TYPE": "U", "NORAD_CAT_ID": 36795, "ELEMENT_SET_NO": 999, "REV_AT_EPOCH": 83346, "BSTAR": 8.1377629e-05, "MEAN_MOTION_DOT": 5.48e-06, "MEAN_MOTION_DDOT": 0}, "tle": {"line1": "1 36795U 10035A   25354.62729002  .00000548  00000+0  81378-4 0  9993", "line2": "2 36795  97.7846  43.4016 0012820  53.2226 307.0160 14.78734947833469"}}, "geometry": {"type": "Point", "coordinates": [-124.92997720599682, 55.57769651628298]}}, {"type": "Feature", "properties": {"norad_id": 36834, "name": "YAOGAN-10", "group": "resource", "lat": 13.875869421655821, "lon": 12.577353691213714, "alt_km": 615.3185895374518, "timestamp": "2025-12-20T18:51:31.374804+00:00", "meta": {"OBJECT_NAME": "YAOGAN-10", "OBJECT_ID": "2010-038A", "EPOCH": "2025-12-20T14:37:44.976576", "MEAN_MOTION": 14.84635318, "ECCENTRICITY": 0.0001419, "INCLINATION": 97.9133, "RA_OF_ASC_NODE": 14.3715, "ARG_OF_PERICENTER": 76.8915, "MEAN_ANOMALY": 75.9235, "EPHEMERIS_TYPE": 0, "CLASSIFICATION_TYPE": "U", "NORAD_CAT_ID": 36834, "ELEMENT_SET_NO": 999, "REV_AT_EPOCH": 83070, "BSTAR": 0.00014657378, "MEAN_MOTION_DOT": 1.185e-05, "MEAN_MOTION_DDOT": 0}, "tle": {"line1": "1 36834U 10038A   25354.60954834  .00001185  00000+0  14657-3 0  9994", "line2": "2 36834  97.9133  14.3715 0001419  76.8915  75.9235 14.84635318830702"}}, "geometry": {"type": "Point", "coordinates": [12.577353691213714, 13.875869421655821]}}]}